OBJECT_NAME,OBJECT_ID,EPOCH,MEAN_MOTION,ECCENTRICITY,INCLINATION,RA_OF_ASC_NODE,ARG_OF_PERICENTER,MEAN_ANOMALY,EPHEMERIS_TYPE,CLASSIFICATION_TYPE,NORAD_CAT_ID,ELEMENT_SET_NO,REV_AT_EPOCH,BSTAR,MEAN_MOTION_DOT,MEAN_MOTION_DDOT
DUCHIFAT-1,2014-033M,2026-07-02T02:25:15.934368,15.67889029,.00000967,98.0445,244.3920,180.5510,179.5749,0,U,40021,999,65808,.12874894E-2,.143832E-2,0
NANOSATC-BR1,2014-033Q,2026-07-02T00:50:36.836448,15.31942146,.00052183,98.0710,216.7426,127.6807,232.4907,0,U,40024,999,65625,.70651672E-3,.21749E-3,0
QB50P1,2014-033R,2026-07-01T23:28:15.894336,15.18486932,.00093476,98.0959,195.1628,164.7109,195.4407,0,U,40025,999,65527,.51493464E-3,.10559E-3,0
DTUSAT-2,2014-033W,2026-07-01T23:10:26.577696,15.15204645,.00082038,98.0860,181.6327,172.2112,187.9248,0,U,40030,999,65492,.44129582E-3,.8222E-4,0
QB50P2,2014-033Y,2026-07-02T05:20:32.327232,15.15355500,.00091692,98.0749,181.0404,120.0574,240.1567,0,U,40032,999,65494,.46060823E-3,.8625E-4,0
PERSEUS-M1,2014-033AF,2026-07-02T03:44:30.808896,14.95682004,.00100944,97.9648,127.5341,245.1554,114.8617,0,U,40039,999,65287,.1314429E-3,.1402E-4,0
POLYITAN-1,2014-033AJ,2026-07-01T19:10:51.813120,15.33780662,.00087487,98.0933,210.4473,101.4445,258.7779,0,U,40042,999,65583,.71283433E-3,.2327E-3,0
TIGRISAT,2014-033AK,2026-07-02T03:21:32.942304,14.85215979,.00497398,97.7850,332.8105,27.1271,333.2527,0,U,40043,999,64784,.23415744E-3,.1997E-4,0
CANX-4,2014-034C,2026-07-02T05:10:22.047744,14.81292189,.00120392,98.3101,59.0790,328.4295,31.6193,0,U,40055,999,64675,.14281333E-3,.1058E-4,0
CANX-5,2014-034D,2026-07-02T05:07:51.536352,14.81309505,.00120432,98.3104,59.1217,328.6477,31.4015,0,U,40056,999,63756,.14294744E-3,.1059E-4,0
GONETS-M 10,2014-036C,2026-07-02T06:48:31.462272,12.42946441,.00229819,82.5129,298.2972,109.1245,251.2325,0,U,40063,999,54412,.11997917E-2,.177E-5,0
METEOR-M 2,2014-037A,2026-07-02T06:42:23.378400,14.21466492,.00060026,98.5119,158.4840,5.4017,354.7224,0,U,40069,999,62146,.20867292E-3,.414E-5,0
DX1,2014-037C,2026-07-02T06:28:25.851360,14.90033603,.00059309,98.3878,145.8884,214.4807,145.6025,0,U,40071,999,64835,.23006653E-3,.2158E-4,0
UKUBE-1,2014-037F,2026-07-02T05:46:09.738336,15.13782027,.00031522,98.4235,188.0962,109.2963,250.8606,0,U,40074,999,65083,.53118523E-3,.9513E-4,0
GAOFEN-2,2014-049A,2026-07-02T07:28:27.909696,14.80913180,.00072081,98.0106,247.5040,173.3203,186.8107,0,U,40118,999,64147,.2451644E-4,.136E-5,0
BRITE-PL2 (HEWELIUSZ),2014-049B,2026-07-02T07:15:43.153056,14.94648804,.00150918,97.9111,295.4202,62.4732,297.8020,0,U,40119,999,64370,.17933618E-3,.1888E-4,0
CBERS 4,2014-079A,2026-07-02T07:14:45.664224,14.35513055,.00013293,98.3526,239.6590,52.6893,307.4414,0,U,40336,999,60612,.4065746E-4,.75E-6,0
SMAP,2015-003A,2026-07-02T06:13:30.311904,14.63380140,.00014745,98.1277,190.1404,97.3987,262.7383,0,U,40376,999,60982,.10713114E-3,.507E-5,0
GONETS-M 11,2015-020A,2026-07-02T07:16:10.441632,12.42878054,.00158692,82.4857,21.5710,332.8466,27.1782,0,U,40552,999,51061,.11872758E-3,.26E-6,0
GONETS-M 12,2015-020B,2026-07-02T06:37:45.865056,12.42891788,.00146163,82.4890,22.7155,317.3821,42.6124,0,U,40553,999,51060,.88858111E-4,.22E-6,0
GONETS-M 13,2015-020C,2026-07-02T05:59:56.473152,12.42871253,.00130007,82.4852,21.3425,301.8776,58.1039,0,U,40554,999,51057,-.49508025E-3,-.59E-6,0
DMC3-FM1,2015-032A,2026-07-02T06:59:23.764992,14.85752651,.0006106,97.6441,47.8725,18.5034,341.6403,0,U,40715,999,59215,.10209539E-4,.37E-6,0
DMC3-FM2,2015-032B,2026-07-02T05:54:05.149152,14.85760104,.00066918,97.6495,49.4129,22.7219,337.4292,0,U,40716,999,59214,.79534691E-4,.64E-5,0
DMC3-FM3,2015-032C,2026-07-02T06:27:49.691232,14.85752240,.00059877,97.6548,51.1985,24.8653,335.2851,0,U,40717,999,59215,.13049972E-3,.1082E-4,0
CARBONITE 1 (CBNT-1),2015-032D,2026-07-02T06:57:46.927872,14.83630465,.00130087,97.6507,0.7240,242.9774,117.0113,0,U,40718,999,59158,.12668219E-3,.995E-5,0
LILACSAT-2,2015-049K,2026-07-02T07:09:14.349600,15.51951818,.0007173,97.4622,220.7172,182.2733,177.8487,0,U,40908,999,59809,.31163983E-3,.18652E-3,0
