DUCHIFAT-1              
1 40021U 14033M   26183.10087887  .00143832  00000+0  12875-2 0  9992
2 40021  98.0445 244.3920 0000096 180.5510 179.5749 15.67889029658082
NANOSATC-BR1            
1 40024U 14033Q   26183.03514857  .00021749  00000+0  70652-3 0  9999
2 40024  98.0710 216.7426 0005218 127.6807 232.4907 15.31942146656259
QB50P1                  
1 40025U 14033R   26182.97796174  .00010559  00000+0  51493-3 0  9995
2 40025  98.0959 195.1628 0009347 164.7109 195.4407 15.18486932655278
DTUSAT-2                
1 40030U 14033W   26182.96558539  .00008222  00000+0  44130-3 0  9995
2 40030  98.0860 181.6327 0008203 172.2112 187.9248 15.15204645654925
QB50P2                  
1 40032U 14033Y   26183.22259638  .00008625  00000+0  46061-3 0  9997
2 40032  98.0749 181.0404 0009169 120.0574 240.1567 15.15355500654943
PERSEUS-M1              
1 40039U 14033AF  26183.15591214  .00001402  00000+0  13144-3 0  9997
2 40039  97.9648 127.5341 0010094 245.1554 114.8617 14.95682004652879
POLYITAN-1              
1 40042U 14033AJ  26182.79921080  .00023270  00000+0  71283-3 0  9993
2 40042  98.0933 210.4473 0008748 101.4445 258.7779 15.33780662655834
TIGRISAT                
1 40043U 14033AK  26183.13996461  .00001997  00000+0  23416-3 0  9995
2 40043  97.7850 332.8105 0049739  27.1271 333.2527 14.85215979647848
CANX-4                  
1 40055U 14034C   26183.21553296  .00001058  00000+0  14281-3 0  9991
2 40055  98.3101  59.0790 0012039 328.4295  31.6193 14.81292189646752
CANX-5                  
1 40056U 14034D   26183.21379093  .00001059  00000+0  14295-3 0  9999
2 40056  98.3104  59.1217 0012043 328.6477  31.4015 14.81309505637561
GONETS-M 10             
1 40063U 14036C   26183.28369748  .00000177  00000+0  11998-2 0  9998
2 40063  82.5129 298.2972 0022981 109.1245 251.2325 12.42946441544128
METEOR-M 2              
1 40069U 14037A   26183.27943725  .00000414  00000+0  20867-3 0  9997
2 40069  98.5119 158.4840 0006002   5.4017 354.7224 14.21466492621464
DX1                     
1 40071U 14037C   26183.26974365  .00002158  00000+0  23007-3 0  9999
2 40071  98.3878 145.8884 0005930 214.4807 145.6025 14.90033603648356
UKUBE-1                 
1 40074U 14037F   26183.24039049  .00009513  00000+0  53119-3 0  9990
2 40074  98.4235 188.0962 0003152 109.2963 250.8606 15.13782027650838
GAOFEN-2                
1 40118U 14049A   26183.31143414  .00000136  00000+0  24516-4 0  9994
2 40118  98.0106 247.5040 0007208 173.3203 186.8107 14.80913180641476
BRITE-PL2 (HEWELIUSZ)   
1 40119U 14049B   26183.30258279  .00001888  00000+0  17934-3 0  9990
2 40119  97.9111 295.4202 0015091  62.4732 297.8020 14.94648804643705
CBERS 4                 
1 40336U 14079A   26183.30191741  .00000075  00000+0  40657-4 0  9990
2 40336  98.3526 239.6590 0001329  52.6893 307.4414 14.35513055606123
SMAP                    
1 40376U 15003A   26183.25937861  .00000507  00000+0  10713-3 0  9996
2 40376  98.1277 190.1404 0001474  97.3987 262.7383 14.63380140609820
GONETS-M 11             
1 40552U 15020A   26183.30289863  .00000026  00000+0  11873-3 0  9993
2 40552  82.4857  21.5710 0015869 332.8466  27.1782 12.42878054510610
GONETS-M 12             
1 40553U 15020B   26183.27622529  .00000022  00000+0  88858-4 0  9994
2 40553  82.4890  22.7155 0014616 317.3821  42.6124 12.42891788510606
GONETS-M 13             
1 40554U 15020C   26183.24995918 -.00000059  00000+0 -49508-3 0  9997
2 40554  82.4852  21.3425 0013000 301.8776  58.1039 12.42871253510571
DMC3-FM1                
1 40715U 15032A   26183.29124728  .00000037  00000+0  10210-4 0  9990
2 40715  97.6441  47.8725 0006106  18.5034 341.6403 14.85752651592154
DMC3-FM2                
1 40716U 15032B   26183.24589293  .00000640  00000+0  79535-4 0  9993
2 40716  97.6495  49.4129 0006691  22.7219 337.4292 14.85760104592141
DMC3-FM3                
1 40717U 15032C   26183.26932513  .00001082  00000+0  13050-3 0  9993
2 40717  97.6548  51.1985 0005987  24.8653 335.2851 14.85752240592153
CARBONITE 1 (CBNT-1)    
1 40718U 15032D   26183.29012648  .00000995  00000+0  12668-3 0  9991
2 40718  97.6507   0.7240 0013008 242.9774 117.0113 14.83630465591588
LILACSAT-2              
1 40908U 15049K   26183.29808275  .00018652  00000+0  31164-3 0  9990
2 40908  97.4622 220.7172 0007173 182.2733 177.8487 15.51951818598095
